COSMOS 2425 (716)       
1 29670U 06062A   18004.62964059 -.00000022  00000-0  10000-3 0  9991
2 29670  65.3621 298.0642 0022494 342.4270 252.5170  2.13104991 85828
COSMOS 2426 (717)       
1 29671U 06062B   18005.20917346 -.00000025  00000-0  10000-3 0  9997
2 29671  65.3792 298.1391 0016388 169.4463   6.9974  2.13103142 85848
COSMOS 2433 (720)       
1 32275U 07052A   18005.09170543 -.00000039  00000-0  10000-3 0  9993
2 32275  65.6090  58.8401 0004131 257.1823 164.0371  2.13104852 79352
COSMOS 2432 (719)       
1 32276U 07052B   18005.28053944 -.00000041  00000-0  10000-3 0  9993
2 32276  65.6224  58.9096 0011387 326.7733 191.6620  2.13103963 79352
COSMOS 2434 (721)       
1 32393U 07065A   18004.91851671 -.00000023  00000-0  00000+0 0  9994
2 32393  64.9775 297.1073 0002323 104.7532  72.2216  2.13102948 78051
COSMOS 2436 (723)       
1 32395U 07065C   18005.43558370 -.00000027  00000-0  10000-3 0  9993
2 32395  64.9861 297.1373 0015947 354.7374 268.6096  2.13104306 77998
COSMOS 2456 (730)       
1 36111U 09070A   18004.52294068  .00000062  00000-0  00000+0 0  9994
2 36111  64.1825 176.6948 0003200 351.0971  54.2101  2.13102935 62717
COSMOS 2457 (733)       
1 36112U 09070B   18005.09031888  .00000064  00000-0  00000+0 0  9999
2 36112  64.1641 176.5894 0007050 147.6173 100.6220  2.13101658 62723
COSMOS 2458 (734)       
1 36113U 09070C   18004.71577023  .00000062  00000-0  10000-3 0  9997
2 36113  64.1696 176.6117 0003182  59.2106 309.8443  2.13102036 62720
COSMOS 2459 (731)       
1 36400U 10007A   18005.09321050 -.00000040  00000-0  10000-3 0  9994
2 36400  65.5187  57.9202 0026656 348.6157 294.0601  2.13102218 61077
COSMOS 2461 (735)       
1 36401U 10007B   18004.43543870 -.00000034  00000-0  10000-3 0  9991
2 36401  65.5107  57.9197 0005041  68.0014 340.6544  2.13102120 61068
COSMOS 2460 (732)       
1 36402U 10007C   18004.88240902 -.00000038  00000-0  10000-3 0  9995
2 36402  65.5018  57.8740 0001454 252.7391 179.7609  2.13101773 61074
COSMOS 2464 (736)       
1 37139U 10041C   18004.66006503 -.00000022  00000-0  00000+0 0  9992
2 37139  64.5810 297.0033 0024054   8.3237 198.1337  2.13102739 57137
COSMOS 2471 (701K)      
1 37372U 11009A   18004.63021899 -.00000036  00000-0  00000+0 0  9993
2 37372  65.4987  57.8285 0009321 234.6962 144.7934  2.13107797 53349
COSMOS 2474 (742)       
1 37829U 11055A   18004.61005737  .00000063  00000-0  00000-0 0  9992
2 37829  64.5064 177.3407 0006169 239.4476  91.5670  2.13101930 48709
COSMOS 2476 (744)       
1 37867U 11064A   18004.69612966  .00000063  00000-0  00000-0 0  9990
2 37867  64.4857 177.4039 0015736 238.1958 204.8401  2.13101998 48067
COSMOS 2477 (745)       
1 37868U 11064B   18004.89068895  .00000064  00000-0  00000-0 0  9990
2 37868  64.4946 177.4438 0013522 239.1400 172.1800  2.13101833 48028
COSMOS 2475 (743)       
1 37869U 11064C   18005.12104440  .00000065  00000-0  00000+0 0  9995
2 37869  64.5019 177.4291 0017783 269.4973 275.1423  2.13102059 48039
COSMOS 2485 (747)       
1 39155U 13019A   18004.59357505  .00000063  00000-0  00000+0 0  9997
2 39155  64.6557 177.4810 0016315 232.5562 176.7678  2.13102016 36532
COSMOS 2492 (754)       
1 39620U 14012A   18004.65423608 -.00000036  00000-0  10000-3 0  9999
2 39620  65.3912  57.7898 0014879 324.0292 166.3459  2.13103498 29481
COSMOS 2500 (755)       
1 40001U 14032A   18004.69271578 -.00000037  00000-0  00000+0 0  9993
2 40001  65.3327  57.7714 0007243 215.2661 167.2374  2.13102778 27700
COSMOS 2501 (702K)      
1 40315U 14075A   18005.04831034 -.00000026  00000-0  00000+0 0  9995
2 40315  64.3072 298.2602 0015388 212.8369 246.0028  2.13098501 24111
COSMOS 2514 (751)       
1 41330U 16008A   18005.45731824 -.00000044  00000-0  00000+0 0  9992
2 41330  65.1341  57.8382 0010679 220.9337 208.6607  2.13103390 14887
COSMOS 2516 (753)       
1 41554U 16032A   18005.37597119 -.00000028  00000-0  00000+0 0  9997
2 41554  64.5267 298.0689 0012360 227.8817  30.9730  2.13101781 12481
COSMOS 2522 (752)       
1 42939U 17055A   18004.62288065 -.00000023  00000-0  00000+0 0  9990
2 42939  64.7574 298.0136 0008570 258.1982   9.2945  2.13102069  2225
